ORBCOMM FM103           
1 40091U 14040F   24256.66431799  .00005592  00000+0  12664-2 0  9998
2 40091  47.0038 247.4759 0001186  66.7061 293.3949 14.57051346523610
ORBCOMM FM114           
1 41179U 15081A   24256.89903413  .00005861  00000+0  13240-2 0  9994
2 41179  47.0010 155.5680 0001685 156.8015 203.2946 14.57109321464016
ORBCOMM FM119           
1 41180U 15081B   24256.87526882  .00004531  00000+0  10339-2 0  9994
2 41180  46.9998  64.9127 0002059 230.8986 129.1716 14.57027650465269
ORBCOMM FM105           
1 41181U 15081C   24256.81048776  .00003125  00000+0  93900-3 0  9994
2 41181  47.0015  43.6803 0001852 181.6125 178.4749 14.44635248460638
ORBCOMM FM110           
1 41182U 15081D   24256.87535560  .00006320  00000+0  14247-2 0  9999
2 41182  47.0001 155.0664 0001747 316.0777  43.9969 14.57101559463884
ORBCOMM FM118           
1 41183U 15081E   24256.78462647  .00007402  00000+0  16605-2 0  9997
2 41183  47.0025 155.8315 0002281 320.8646  39.2074 14.57144076463970
ORBCOMM FM112           
1 41184U 15081F   24256.44085536  .00003539  00000+0  81579-3 0  9999
2 41184  46.9977  66.1563 0002197 206.4264 153.6509 14.57033683465141
ORBCOMM FM113           
1 41185U 15081G   24256.89807521  .00005519  00000+0  12517-2 0  9990
2 41185  47.0000  64.2878 0002165 229.5048 130.5648 14.57006807465191
