<?xml version="1.0" encoding="UTF-8"?>
<ndm xmlns:xsi="http://www.w3.org/2001/XMLSchema-instance" xsi:noNamespaceSchemaLocation="https://sanaregistry.org/r/ndmxml_unqualified/ndmxml-2.0.0-master-2.0.xsd">
<omm id="CCSDS_OMM_VERS" version="2.0">
<header><CREATION_DATE/><ORIGINATOR/></header><body><segment><metadata><OBJECT_NAME>ORBCOMM FM103</OBJECT_NAME><OBJECT_ID>2014-040F</OBJECT_ID><CENTER_NAME>EARTH</CENTER_NAME><REF_FRAME>TEME</REF_FRAME><TIME_SYSTEM>UTC</TIME_SYSTEM><MEAN_ELEMENT_THEORY>SGP4</MEAN_ELEMENT_THEORY></metadata><data><meanElements><EPOCH>2024-09-12T15:56:37.074336</EPOCH><MEAN_MOTION>14.57051346</MEAN_MOTION><ECCENTRICITY>.0001186</ECCENTRICITY><INCLINATION>47.0038</INCLINATION><RA_OF_ASC_NODE>247.4759</RA_OF_ASC_NODE><ARG_OF_PERICENTER>66.7061</ARG_OF_PERICENTER><MEAN_ANOMALY>293.3949</MEAN_ANOMALY></meanElements><tleParameters><EPHEMERIS_TYPE>0</EPHEMERIS_TYPE><CLASSIFICATION_TYPE>U</CLASSIFICATION_TYPE><NORAD_CAT_ID>40091</NORAD_CAT_ID><ELEMENT_SET_NO>999</ELEMENT_SET_NO><REV_AT_EPOCH>52361</REV_AT_EPOCH><BSTAR>.12664E-2</BSTAR><MEAN_MOTION_DOT>.5592E-4</MEAN_MOTION_DOT><MEAN_MOTION_DDOT>0</MEAN_MOTION_DDOT></tleParameters></data></segment></body></omm>
<omm id="CCSDS_OMM_VERS" version="2.0">
<header><CREATION_DATE/><ORIGINATOR/></header><body><segment><metadata><OBJECT_NAME>ORBCOMM FM114</OBJECT_NAME><OBJECT_ID>2015-081A</OBJECT_ID><CENTER_NAME>EARTH</CENTER_NAME><REF_FRAME>TEME</REF_FRAME><TIME_SYSTEM>UTC</TIME_SYSTEM><MEAN_ELEMENT_THEORY>SGP4</MEAN_ELEMENT_THEORY></metadata><data><meanElements><EPOCH>2024-09-12T21:34:36.548832</EPOCH><MEAN_MOTION>14.57109321</MEAN_MOTION><ECCENTRICITY>.0001685</ECCENTRICITY><INCLINATION>47.0010</INCLINATION><RA_OF_ASC_NODE>155.5680</RA_OF_ASC_NODE><ARG_OF_PERICENTER>156.8015</ARG_OF_PERICENTER><MEAN_ANOMALY>203.2946</MEAN_ANOMALY></meanElements><tleParameters><EPHEMERIS_TYPE>0</EPHEMERIS_TYPE><CLASSIFICATION_TYPE>U</CLASSIFICATION_TYPE><NORAD_CAT_ID>41179</NORAD_CAT_ID><ELEMENT_SET_NO>999</ELEMENT_SET_NO><REV_AT_EPOCH>46401</REV_AT_EPOCH><BSTAR>.1324E-2</BSTAR><MEAN_MOTION_DOT>.5861E-4</MEAN_MOTION_DOT><MEAN_MOTION_DDOT>0</MEAN_MOTION_DDOT></tleParameters></data></segment></body></omm>
<omm id="CCSDS_OMM_VERS" version="2.0">
<header><CREATION_DATE/><ORIGINATOR/></header><body><segment><metadata><OBJECT_NAME>ORBCOMM FM119</OBJECT_NAME><OBJECT_ID>2015-081B</OBJECT_ID><CENTER_NAME>EARTH</CENTER_NAME><REF_FRAME>TEME</REF_FRAME><TIME_SYSTEM>UTC</TIME_SYSTEM><MEAN_ELEMENT_THEORY>SGP4</MEAN_ELEMENT_THEORY></metadata><data><meanElements><EPOCH>2024-09-12T21:00:23.226048</EPOCH><MEAN_MOTION>14.57027650</MEAN_MOTION><ECCENTRICITY>.0002059</ECCENTRICITY><INCLINATION>46.9998</INCLINATION><RA_OF_ASC_NODE>64.9127</RA_OF_ASC_NODE><ARG_OF_PERICENTER>230.8986</ARG_OF_PERICENTER><MEAN_ANOMALY>129.1716</MEAN_ANOMALY></meanElements><tleParameters><EPHEMERIS_TYPE>0</EPHEMERIS_TYPE><CLASSIFICATION_TYPE>U</CLASSIFICATION_TYPE><NORAD_CAT_ID>41180</NORAD_CAT_ID><ELEMENT_SET_NO>999</ELEMENT_SET_NO><REV_AT_EPOCH>46526</REV_AT_EPOCH><BSTAR>.10339E-2</BSTAR><MEAN_MOTION_DOT>.4531E-4</MEAN_MOTION_DOT><MEAN_MOTION_DDOT>0</MEAN_MOTION_DDOT></tleParameters></data></segment></body></omm>
<omm id="CCSDS_OMM_VERS" version="2.0">
<header><CREATION_DATE/><ORIGINATOR/></header><body><segment><metadata><OBJECT_NAME>ORBCOMM FM105</OBJECT_NAME><OBJECT_ID>2015-081C</OBJECT_ID><CENTER_NAME>EARTH</CENTER_NAME><REF_FRAME>TEME</REF_FRAME><TIME_SYSTEM>UTC</TIME_SYSTEM><MEAN_ELEMENT_THEORY>SGP4</MEAN_ELEMENT_THEORY></metadata><data><meanElements><EPOCH>2024-09-12T19:27:06.142464</EPOCH><MEAN_MOTION>14.44635248</MEAN_MOTION><ECCENTRICITY>.0001852</ECCENTRICITY><INCLINATION>47.0015</INCLINATION><RA_OF_ASC_NODE>43.6803</RA_OF_ASC_NODE><ARG_OF_PERICENTER>181.6125</ARG_OF_PERICENTER><MEAN_ANOMALY>178.4749</MEAN_ANOMALY></meanElements><tleParameters><EPHEMERIS_TYPE>0</EPHEMERIS_TYPE><CLASSIFICATION_TYPE>U</CLASSIFICATION_TYPE><NORAD_CAT_ID>41181</NORAD_CAT_ID><ELEMENT_SET_NO>999</ELEMENT_SET_NO><REV_AT_EPOCH>46063</REV_AT_EPOCH><BSTAR>.939E-3</BSTAR><MEAN_MOTION_DOT>.3125E-4</MEAN_MOTION_DOT><MEAN_MOTION_DDOT>0</MEAN_MOTION_DDOT></tleParameters></data></segment></body></omm>
<omm id="CCSDS_OMM_VERS" version="2.0">
<header><CREATION_DATE/><ORIGINATOR/></header><body><segment><metadata><OBJECT_NAME>ORBCOMM FM110</OBJECT_NAME><OBJECT_ID>2015-081D</OBJECT_ID><CENTER_NAME>EARTH</CENTER_NAME><REF_FRAME>TEME</REF_FRAME><TIME_SYSTEM>UTC</TIME_SYSTEM><MEAN_ELEMENT_THEORY>SGP4</MEAN_ELEMENT_THEORY></metadata><data><meanElements><EPOCH>2024-09-12T21:00:30.723840</EPOCH><MEAN_MOTION>14.57101559</MEAN_MOTION><ECCENTRICITY>.0001747</ECCENTRICITY><INCLINATION>47.0001</INCLINATION><RA_OF_ASC_NODE>155.0664</RA_OF_ASC_NODE><ARG_OF_PERICENTER>316.0777</ARG_OF_PERICENTER><MEAN_ANOMALY>43.9969</MEAN_ANOMALY></meanElements><tleParameters><EPHEMERIS_TYPE>0</EPHEMERIS_TYPE><CLASSIFICATION_TYPE>U</CLASSIFICATION_TYPE><NORAD_CAT_ID>41182</NORAD_CAT_ID><ELEMENT_SET_NO>999</ELEMENT_SET_NO><REV_AT_EPOCH>46388</REV_AT_EPOCH><BSTAR>.14247E-2</BSTAR><MEAN_MOTION_DOT>.632E-4</MEAN_MOTION_DOT><MEAN_MOTION_DDOT>0</MEAN_MOTION_DDOT></tleParameters></data></segment></body></omm>
<omm id="CCSDS_OMM_VERS" version="2.0">
<header><CREATION_DATE/><ORIGINATOR/></header><body><segment><metadata><OBJECT_NAME>ORBCOMM FM118</OBJECT_NAME><OBJECT_ID>2015-081E</OBJECT_ID><CENTER_NAME>EARTH</CENTER_NAME><REF_FRAME>TEME</REF_FRAME><TIME_SYSTEM>UTC</TIME_SYSTEM><MEAN_ELEMENT_THEORY>SGP4</MEAN_ELEMENT_THEORY></metadata><data><meanElements><EPOCH>2024-09-12T18:49:51.727008</EPOCH><MEAN_MOTION>14.57144076</MEAN_MOTION><ECCENTRICITY>.0002281</ECCENTRICITY><INCLINATION>47.0025</INCLINATION><RA_OF_ASC_NODE>155.8315</RA_OF_ASC_NODE><ARG_OF_PERICENTER>320.8646</ARG_OF_PERICENTER><MEAN_ANOMALY>39.2074</MEAN_ANOMALY></meanElements><tleParameters><EPHEMERIS_TYPE>0</EPHEMERIS_TYPE><CLASSIFICATION_TYPE>U</CLASSIFICATION_TYPE><NORAD_CAT_ID>41183</NORAD_CAT_ID><ELEMENT_SET_NO>999</ELEMENT_SET_NO><REV_AT_EPOCH>46397</REV_AT_EPOCH><BSTAR>.16605E-2</BSTAR><MEAN_MOTION_DOT>.7402E-4</MEAN_MOTION_DOT><MEAN_MOTION_DDOT>0</MEAN_MOTION_DDOT></tleParameters></data></segment></body></omm>
<omm id="CCSDS_OMM_VERS" version="2.0">
<header><CREATION_DATE/><ORIGINATOR/></header><body><segment><metadata><OBJECT_NAME>ORBCOMM FM112</OBJECT_NAME><OBJECT_ID>2015-081F</OBJECT_ID><CENTER_NAME>EARTH</CENTER_NAME><REF_FRAME>TEME</REF_FRAME><TIME_SYSTEM>UTC</TIME_SYSTEM><MEAN_ELEMENT_THEORY>SGP4</MEAN_ELEMENT_THEORY></metadata><data><meanElements><EPOCH>2024-09-12T10:34:49.903104</EPOCH><MEAN_MOTION>14.57033683</MEAN_MOTION><ECCENTRICITY>.0002197</ECCENTRICITY><INCLINATION>46.9977</INCLINATION><RA_OF_ASC_NODE>66.1563</RA_OF_ASC_NODE><ARG_OF_PERICENTER>206.4264</ARG_OF_PERICENTER><MEAN_ANOMALY>153.6509</MEAN_ANOMALY></meanElements><tleParameters><EPHEMERIS_TYPE>0</EPHEMERIS_TYPE><CLASSIFICATION_TYPE>U</CLASSIFICATION_TYPE><NORAD_CAT_ID>41184</NORAD_CAT_ID><ELEMENT_SET_NO>999</ELEMENT_SET_NO><REV_AT_EPOCH>46514</REV_AT_EPOCH><BSTAR>.81579E-3</BSTAR><MEAN_MOTION_DOT>.3539E-4</MEAN_MOTION_DOT><MEAN_MOTION_DDOT>0</MEAN_MOTION_DDOT></tleParameters></data></segment></body></omm>
<omm id="CCSDS_OMM_VERS" version="2.0">
<header><CREATION_DATE/><ORIGINATOR/></header><body><segment><metadata><OBJECT_NAME>ORBCOMM FM113</OBJECT_NAME><OBJECT_ID>2015-081G</OBJECT_ID><CENTER_NAME>EARTH</CENTER_NAME><REF_FRAME>TEME</REF_FRAME><TIME_SYSTEM>UTC</TIME_SYSTEM><MEAN_ELEMENT_THEORY>SGP4</MEAN_ELEMENT_THEORY></metadata><data><meanElements><EPOCH>2024-09-12T21:33:13.698144</EPOCH><MEAN_MOTION>14.57006807</MEAN_MOTION><ECCENTRICITY>.0002165</ECCENTRICITY><INCLINATION>47.0000</INCLINATION><RA_OF_ASC_NODE>64.2878</RA_OF_ASC_NODE><ARG_OF_PERICENTER>229.5048</ARG_OF_PERICENTER><MEAN_ANOMALY>130.5648</MEAN_ANOMALY></meanElements><tleParameters><EPHEMERIS_TYPE>0</EPHEMERIS_TYPE><CLASSIFICATION_TYPE>U</CLASSIFICATION_TYPE><NORAD_CAT_ID>41185</NORAD_CAT_ID><ELEMENT_SET_NO>999</ELEMENT_SET_NO><REV_AT_EPOCH>46519</REV_AT_EPOCH><BSTAR>.12517E-2</BSTAR><MEAN_MOTION_DOT>.5519E-4</MEAN_MOTION_DOT><MEAN_MOTION_DDOT>0</MEAN_MOTION_DDOT></tleParameters></data></segment></body></omm>

</ndm>
